{
  "norad_id": 63315,
  "name": "STARLINK-11652 [DTC]",
  "history": [
    {
      "epoch": "2026-03-28T20:44:55.035168Z",
      "apogee_km": 357.45763323785286,
      "perigee_km": 354.6027503985533,
      "latitude_deg": -1.2888858836541014e-05,
      "longitude_deg": 11.411621563289541,
      "height_km": 355.1779988798159,
      "semi_major_axis_km": 6734.167191818203,
      "eccentricity": 0.00021197,
      "inclination_deg": 43.0012,
      "raan_deg": 148.9198,
      "arg_perigee_deg": 295.978,
      "mean_anomaly_deg": 64.0869,
      "mean_motion_rev_day": 15.71002659
    },
    {
      "epoch": "2026-03-30T04:47:40.552224Z",
      "apogee_km": 357.4258764373981,
      "perigee_km": 355.55526628317693,
      "latitude_deg": 3.680565766313134e-05,
      "longitude_deg": -118.64096066948247,
      "height_km": 356.3669707727973,
      "semi_major_axis_km": 6734.627571360287,
      "eccentricity": 0.00013888,
      "inclination_deg": 43.0008,
      "raan_deg": 140.8729,
      "arg_perigee_deg": 263.6222,
      "mean_anomaly_deg": 96.4488,
      "mean_motion_rev_day": 15.70841571
    },
    {
      "epoch": "2026-03-30T13:57:02.420928Z",
      "apogee_km": 357.22618085289105,
      "perigee_km": 355.14729511497444,
      "latitude_deg": -4.720848223234979e-05,
      "longitude_deg": 101.3423039615303,
      "height_km": 355.61493445028447,
      "semi_major_axis_km": 6734.323737983932,
      "eccentricity": 0.00015435,
      "inclination_deg": 43.0006,
      "raan_deg": 138.5734,
      "arg_perigee_deg": 289.3502,
      "mean_anomaly_deg": 70.7198,
      "mean_motion_rev_day": 15.7094788
    },
    {
      "epoch": "2026-03-31T11:18:52.783200Z",
      "apogee_km": 357.06409995780905,
      "perigee_km": 355.904398178719,
      "latitude_deg": 1.418689651018656e-06,
      "longitude_deg": 134.63872628662494,
      "height_km": 355.8446385519586,
      "semi_major_axis_km": 6734.621249068264,
      "eccentricity": 8.61e-05,
      "inclination_deg": 43.0001,
      "raan_deg": 133.207,
      "arg_perigee_deg": 315.1974,
      "mean_anomaly_deg": 44.8824,
      "mean_motion_rev_day": 15.70843783
    },
    {
      "epoch": "2026-04-01T19:21:39.280896Z",
      "apogee_km": 357.7855945855108,
      "perigee_km": 354.7402989295879,
      "latitude_deg": 1.1352122540386378e-05,
      "longitude_deg": 4.5810055196028925,
      "height_km": 355.112074717321,
      "semi_major_axis_km": 6734.3999467575495,
      "eccentricity": 0.0002261,
      "inclination_deg": 43.0008,
      "raan_deg": 125.1591,
      "arg_perigee_deg": 52.8193,
      "mean_anomaly_deg": 307.2881,
      "mean_motion_rev_day": 15.70921214
    },
    {
      "epoch": "2026-04-02T18:15:01.674720Z",
      "apogee_km": 356.94592149003074,
      "perigee_km": 355.5532503440627,
      "latitude_deg": 1.3694421188299786e-06,
      "longitude_deg": 14.545947470886022,
      "height_km": 355.7995465324959,
      "semi_major_axis_km": 6734.386585917046,
      "eccentricity": 0.0001034,
      "inclination_deg": 43.0001,
      "raan_deg": 119.4074,
      "arg_perigee_deg": 71.5686,
      "mean_anomaly_deg": 288.5294,
      "mean_motion_rev_day": 15.70925889
    },
    {
      "epoch": "2026-04-02T18:15:01.675584Z",
      "apogee_km": 356.9461235216286,
      "perigee_km": 355.55304831246485,
      "latitude_deg": -8.782619570266735e-07,
      "longitude_deg": 14.545941464223652,
      "height_km": 355.79948266702536,
      "semi_major_axis_km": 6734.386585917046,
      "eccentricity": 0.00010343,
      "inclination_deg": 43.0001,
      "raan_deg": 119.4074,
      "arg_perigee_deg": 71.5686,
      "mean_anomaly_deg": 288.5294,
      "mean_motion_rev_day": 15.70925889
    },
    {
      "epoch": "2026-04-03T11:02:10.500000Z",
      "apogee_km": 357.54452012780257,
      "perigee_km": 355.1894640817636,
      "latitude_deg": 1.9154440004058196e-05,
      "longitude_deg": 117.8563268810161,
      "height_km": 355.6580458132304,
      "semi_major_axis_km": 6734.503992104783,
      "eccentricity": 0.00017485,
      "inclination_deg": 43.002,
      "raan_deg": 115.1939,
      "arg_perigee_deg": 294.1546,
      "mean_anomaly_deg": 65.9139,
      "mean_motion_rev_day": 15.70884809
    },
    {
      "epoch": "2026-04-04T09:55:34.558752Z",
      "apogee_km": 357.10281408361516,
      "perigee_km": 355.12159796720334,
      "latitude_deg": -1.1027352613471433e-05,
      "longitude_deg": 127.81378989815742,
      "height_km": 356.16753147971576,
      "semi_major_axis_km": 6734.249206025409,
      "eccentricity": 0.0001471,
      "inclination_deg": 43.0008,
      "raan_deg": 109.4417,
      "arg_perigee_deg": 253.4104,
      "mean_anomaly_deg": 106.6602,
      "mean_motion_rev_day": 15.7097396
    }
  ]
}